{
    "links": {
        "self": "http://www.neowsapp.com/rest/v1/neo/3716462?api_key=iIulBulltgU6a56xZRHN4H3l9WmuAYTsLGpBGhQ2"
    },
    "id": "3716462",
    "neo_reference_id": "3716462",
    "name": "(2015 HO1)",
    "designation": "2015 HO1",
    "nasa_jpl_url": "http://ssd.jpl.nasa.gov/sbdb.cgi?sstr=3716462",
    "absolute_magnitude_h": 23.7,
    "estimated_diameter": {
        "kilometers": {
            "estimated_diameter_min": 0.0483676488,
            "estimated_diameter_max": 0.1081533507
        },
        "meters": {
            "estimated_diameter_min": 48.3676488219,
            "estimated_diameter_max": 108.1533506775
        },
        "miles": {
            "estimated_diameter_min": 0.0300542543,
            "estimated_diameter_max": 0.0672033557
        },
        "feet": {
            "estimated_diameter_min": 158.6865169607,
            "estimated_diameter_max": 354.8338390368
        }
    },
    "is_potentially_hazardous_asteroid": false,
    "close_approach_data": [
        {
            "close_approach_date": "2015-05-01",
            "close_approach_date_full": "2015-May-01 06:08",
            "epoch_date_close_approach": 1430460480000,
            "relative_velocity": {
                "kilometers_per_second": "3.2221501686",
                "kilometers_per_hour": "11599.7406070064",
                "miles_per_hour": "7207.6277121702"
            },
            "miss_distance": {
                "astronomical": "0.2662780558",
                "lunar": "103.5821637062",
                "kilometers": "39834629.975421146",
                "miles": "24752091.2970019748"
            },
            "orbiting_body": "Earth"
        }
    ],
    "orbital_data": {
        "orbit_id": "6",
        "orbit_determination_date": "2017-04-06 08:34:18",
        "first_observation_date": "2015-04-18",
        "last_observation_date": "2015-04-22",
        "data_arc_in_days": 4,
        "observations_used": 23,
        "orbit_uncertainty": "9",
        "minimum_orbit_intersection": ".261866",
        "jupiter_tisserand_invariant": "3.376",
        "epoch_osculation": "2457132.5",
        "eccentricity": ".4694159986746472",
        "semi_major_axis": "2.380359069801359",
        "inclination": "4.634506571607343",
        "ascending_node_longitude": "1.520585630548206",
        "orbital_period": "1341.411847736021",
        "perihelion_distance": "1.2629804398463",
        "perihelion_argument": "220.799853987109",
        "aphelion_distance": "3.497737699756418",
        "perihelion_time": "2457148.738254322236",
        "mean_anomaly": "355.6420754998763",
        "mean_motion": ".2683739528673412",
        "equinox": "J2000",
        "orbit_class": {
            "orbit_class_type": "AMO",
            "orbit_class_description": "Near-Earth asteroid orbits similar to that of 1221 Amor",
            "orbit_class_range": "1.017 AU < q (perihelion) < 1.3 AU"
        }
    },
    "is_sentry_object": false
}